ONEWEB-0667             
1 55827U 23029AH  26164.54283487  .00000014  00000+0  18874-5 0  9990
2 55827  87.9196 275.1564 0001805  97.3846 262.7492 13.20772006160669
ONEWEB-0669             
1 55828U 23029AJ  26164.53777981  .00000057  00000+0  10922-3 0  9998
2 55828  87.9190 275.1688 0002309  88.2802 271.8595 13.20772193160664
ONEWEB-0670             
1 55829U 23029AK  26164.63476016  .00000184  00000+0  46276-3 0  9997
2 55829  87.8946 290.4494 0001723  88.4314 271.7013 13.14503076158966
ONEWEB-0671             
1 55830U 23029AL  26164.65173969  .00000116  00000+0  25802-3 0  9999
2 55830  87.9167 305.6803 0001706  95.6625 264.4702 13.19724740158437
ONEWEB-0672             
1 55831U 23029AM  26164.53272342  .00000050  00000+0  90410-4 0  9997
2 55831  87.9191 275.1630 0002248 100.0596 260.0791 13.20772313160663
ONEWEB-0673             
1 55832U 23029AN  26164.62883995  .00000097  00000+0  21022-3 0  9993
2 55832  87.9172 305.6759 0001737  95.0380 265.0951 13.19727808158432
ONEWEB-0674             
1 55833U 23029AP  26164.60303588 -.00000217  00000+0 -61875-3 0  9993
2 55833  87.8950 290.4325 0001764  87.2111 272.9220 13.14503896158947
ONEWEB-0675             
1 55834U 23029AQ  26164.64385328  .00000063  00000+0  12565-3 0  9999
2 55834  87.9164 305.6832 0002090 104.7079 255.4286 13.19724646158456
ONEWEB-0720             
1 55835U 23029AR  26164.63594943  .00000073  00000+0  15094-3 0  9995
2 55835  87.9164 305.6847 0001588 102.7023 257.4287 13.19724875158379
ONEWEB-0537             
1 56046U 23043A   26164.62274336  .00000094  00000+0  21321-3 0  9999
2 56046  87.9098 229.4794 0002258 100.0442 260.0944 13.16594197158497
ONEWEB-0538             
1 56047U 23043B   26164.61641041  .00000075  00000+0  16205-3 0  9994
2 56047  87.9100 229.4831 0002087 105.4356 254.7006 13.16594436158504
ONEWEB-0546             
1 56048U 23043C   26164.60374552 -.00000013  00000+0 -68271-4 0  9999
2 56048  87.9099 229.4856 0002771  99.0154 261.1290 13.16594209158496
ONEWEB-0547             
1 56049U 23043D   26164.61469878 -.00000017  00000+0 -71664-4 0  9991
2 56049  87.9258 244.6847 0001917 103.2142 256.9206 13.21825268157754
ONEWEB-0548             
1 56050U 23043E   26164.62827169  .00000125  00000+0  29375-3 0  9994
2 56050  87.9094 229.4774 0002040  82.9195 277.2168 13.16595785158490
ONEWEB-0549             
1 56051U 23043F   26164.60881505  .00000000  00000+0 -30537-4 0  9993
2 56051  87.9253 244.6927 0002052 109.9026 250.2329 13.21825523157753
ONEWEB-0550             
1 56052U 23043G   26164.21688590  .00000032  00000+0  46364-4 0  9999
2 56052  87.9255 244.7680 0001937  93.4950 266.6405 13.21825701157706
ONEWEB-0551             
1 56053U 23043H   26164.27630742 -.00000002  00000+0 -39105-4 0  9996
2 56053  87.9000 260.0053 0001855 110.6679 249.4651 13.15549350155884
ONEWEB-0552             
1 56054U 23043J   26164.59029656  .00000143  00000+0  31564-3 0  9992
2 56054  87.9252 244.6996 0001822  99.4449 260.6891 13.21829280157750
ONEWEB-0553             
1 56055U 23043K   26164.61007476  .00000057  00000+0  11607-3 0  9992
2 56055  87.9097 229.4848 0002447  95.7801 264.3609 13.16593906158509
ONEWEB-0554             
1 56056U 23043L   26164.59742141  .00000000  00000+0 -34243-4 0  9996
2 56056  87.9096 229.4964 0002030  83.3251 276.8111 13.16584946158485
ONEWEB-0555             
1 56057U 23043M   26164.63539158  .00000144  00000+0  34338-3 0  9996
2 56057  87.9101 229.4768 0002651  96.3228 263.8205 13.16596098158494
ONEWEB-0557             
1 56058U 23043N   26164.57365654  .00000029  00000+0  41919-4 0  9994
2 56058  87.9101 229.4991 0002873  74.6569 285.4879 13.16594382158486
ONEWEB-0558             
1 56059U 23043P   26164.58357036 -.00000132  00000+0 -35163-3 0  9991
2 56059  87.9256 244.6956 0002106 108.3918 251.7446 13.21826551157768
ONEWEB-0559             
1 56060U 23043Q   26164.49609210  .00000085  00000+0  17526-3 0  9995
2 56060  87.9257 244.7078 0001888 104.1232 256.0112 13.21827548157761
ONEWEB-0566             
1 56061U 23043R   26164.64077614  .00000037  00000+0  58636-4 0  9995
2 56061  87.9257 244.6773 0001851 107.7982 252.3354 13.21826652157766
ONEWEB-0568             
1 56062U 23043S   26164.59107908 -.00000051  00000+0 -16744-3 0  9991
2 56062  87.9098 229.4853 0002394  97.0921 263.0483 13.16593700158501
ONEWEB-0574             
1 56063U 23043T   26164.63403639 -.00000180  00000+0 -46675-3 0  9996
2 56063  87.9267 244.6814 0002122  94.2953 265.8424 13.21825187157809
ONEWEB-0575             
1 56064U 23043U   26164.58474679 -.00000018  00000+0 -81247-4 0  9998
2 56064  87.9099 229.4830 0002334  88.8375 271.3023 13.16593964158496
ONEWEB-0576             
1 56065U 23043V   26164.56574064  .00000062  00000+0  12917-3 0  9990
2 56065  87.9102 229.4943 0002183  92.6234 267.5146 13.16593714158481
ONEWEB-0577             
1 56066U 23043W   26164.57207915  .00000036  00000+0  60185-4 0  9992
2 56066  87.9103 229.4908 0002338  78.6090 281.5304 13.16593416158515
