OBJECT_NAME,OBJECT_ID,EPOCH,MEAN_MOTION,ECCENTRICITY,INCLINATION,RA_OF_ASC_NODE,ARG_OF_PERICENTER,MEAN_ANOMALY,EPHEMERIS_TYPE,CLASSIFICATION_TYPE,NORAD_CAT_ID,ELEMENT_SET_NO,REV_AT_EPOCH,BSTAR,MEAN_MOTION_DOT,MEAN_MOTION_DDOT
ONEWEB-0667,2023-029AH,2026-06-13T13:01:40.932768,13.20772006,.00018053,87.9196,275.1564,97.3846,262.7492,0,U,55827,999,16066,.1887369E-5,.14E-6,0
ONEWEB-0669,2023-029AJ,2026-06-13T12:54:24.175584,13.20772193,.00023096,87.9190,275.1688,88.2802,271.8595,0,U,55828,999,16066,.10922331E-3,.57E-6,0
ONEWEB-0670,2023-029AK,2026-06-13T15:14:03.277824,13.14503076,.00017234,87.8946,290.4494,88.4314,271.7013,0,U,55829,999,15896,.46275604E-3,.184E-5,0
ONEWEB-0671,2023-029AL,2026-06-13T15:38:30.309216,13.19724740,.00017061,87.9167,305.6803,95.6625,264.4702,0,U,55830,999,15843,.25802275E-3,.116E-5,0
ONEWEB-0672,2023-029AM,2026-06-13T12:47:07.303488,13.20772313,.00022484,87.9191,275.1630,100.0596,260.0791,0,U,55831,999,16066,.9040956E-4,.5E-6,0
ONEWEB-0673,2023-029AN,2026-06-13T15:05:31.771680,13.19727808,.0001737,87.9172,305.6759,95.0380,265.0951,0,U,55832,999,15843,.21022419E-3,.97E-6,0
ONEWEB-0674,2023-029AP,2026-06-13T14:28:22.300032,13.14503896,.00017645,87.8950,290.4325,87.2111,272.9220,0,U,55833,999,15894,-.61875117E-3,-.217E-5,0
ONEWEB-0675,2023-029AQ,2026-06-13T15:27:08.923392,13.19724646,.00020901,87.9164,305.6832,104.7079,255.4286,0,U,55834,999,15845,.12564682E-3,.63E-6,0
ONEWEB-0720,2023-029AR,2026-06-13T15:15:46.030752,13.19724875,.00015883,87.9164,305.6847,102.7023,257.4287,0,U,55835,999,15837,.1509374E-3,.73E-6,0
ONEWEB-0537,2023-043A,2026-06-13T14:56:45.026304,13.16594197,.00022584,87.9098,229.4794,100.0442,260.0944,0,U,56046,999,15849,.21321359E-3,.94E-6,0
ONEWEB-0538,2023-043B,2026-06-13T14:47:37.859424,13.16594436,.00020878,87.9100,229.4831,105.4356,254.7006,0,U,56047,999,15850,.16205143E-3,.75E-6,0
ONEWEB-0546,2023-043C,2026-06-13T14:29:23.612928,13.16594209,.00027718,87.9099,229.4856,99.0154,261.1290,0,U,56048,999,15849,-.68271008E-4,-.13E-6,0
ONEWEB-0547,2023-043D,2026-06-13T14:45:09.974592,13.21825268,.00019176,87.9258,244.6847,103.2142,256.9206,0,U,56049,999,15775,-.71663693E-4,-.17E-6,0
ONEWEB-0548,2023-043E,2026-06-13T15:04:42.674016,13.16595785,.00020404,87.9094,229.4774,82.9195,277.2168,0,U,56050,999,15849,.29375259E-3,.125E-5,0
ONEWEB-0549,2023-043F,2026-06-13T14:36:41.620320,13.21825523,.00020525,87.9253,244.6927,109.9026,250.2329,0,U,56051,999,15775,-.30537403E-4,0,0
ONEWEB-0550,2023-043G,2026-06-13T05:12:18.941760,13.21825701,.0001937,87.9255,244.7680,93.4950,266.6405,0,U,56052,999,15770,.46364E-4,.32E-6,0
ONEWEB-0551,2023-043H,2026-06-13T06:37:52.961088,13.15549350,.0001855,87.9000,260.0053,110.6679,249.4651,0,U,56053,999,15588,-.39105E-4,-.2E-7,0
ONEWEB-0552,2023-043J,2026-06-13T14:10:01.622784,13.21829280,.00018226,87.9252,244.6996,99.4449,260.6891,0,U,56054,999,15775,.31563891E-3,.143E-5,0
ONEWEB-0553,2023-043K,2026-06-13T14:38:30.459264,13.16593906,.00024471,87.9097,229.4848,95.7801,264.3609,0,U,56055,999,15850,.11606662E-3,.57E-6,0
ONEWEB-0554,2023-043L,2026-06-13T14:20:17.209824,13.16584946,.00020309,87.9096,229.4964,83.3251,276.8111,0,U,56056,999,15848,-.34243194E-4,0,0
ONEWEB-0555,2023-043M,2026-06-13T15:14:57.832512,13.16596098,.00026519,87.9101,229.4768,96.3228,263.8205,0,U,56057,999,15849,.34338185E-3,.144E-5,0
ONEWEB-0557,2023-043N,2026-06-13T13:46:03.925056,13.16594382,.00028734,87.9101,229.4991,74.6569,285.4879,0,U,56058,999,15848,.419191E-4,.29E-6,0
ONEWEB-0558,2023-043P,2026-06-13T14:00:20.479104,13.21826551,.00021064,87.9256,244.6956,108.3918,251.7446,0,U,56059,999,15776,-.35162927E-3,-.132E-5,0
ONEWEB-0559,2023-043Q,2026-06-13T11:54:22.357440,13.21827548,.00018884,87.9257,244.7078,104.1232,256.0112,0,U,56060,999,15776,.17526291E-3,.85E-6,0
ONEWEB-0566,2023-043R,2026-06-13T15:22:43.058496,13.21826652,.00018511,87.9257,244.6773,107.7982,252.3354,0,U,56061,999,15776,.58636294E-4,.37E-6,0
ONEWEB-0568,2023-043S,2026-06-13T14:11:09.232512,13.16593700,.00023947,87.9098,229.4853,97.0921,263.0483,0,U,56062,999,15850,-.16744025E-3,-.51E-6,0
ONEWEB-0574,2023-043T,2026-06-13T15:13:00.744096,13.21825187,.00021229,87.9267,244.6814,94.2953,265.8424,0,U,56063,999,15780,-.46675396E-3,-.18E-5,0
ONEWEB-0575,2023-043U,2026-06-13T14:02:02.122656,13.16593964,.00023348,87.9099,229.4830,88.8375,271.3023,0,U,56064,999,15849,-.81246934E-4,-.18E-6,0
ONEWEB-0576,2023-043V,2026-06-13T13:34:39.991296,13.16593714,.0002183,87.9102,229.4943,92.6234,267.5146,0,U,56065,999,15848,.12917203E-3,.62E-6,0
ONEWEB-0577,2023-043W,2026-06-13T13:43:47.638560,13.16593416,.00023382,87.9103,229.4908,78.6090,281.5304,0,U,56066,999,15851,.60184654E-4,.36E-6,0
